{
  "type": "FeatureCollection",
  "features": [
    {
      "type": "Feature",
      "properties": {
        "norad_id": 33860,
        "name": "IRIDIUM 33 DEB",
        "group": "iridium-33-debris",
        "lat": -7.989177423214379,
        "lon": 24.235802734131244,
        "alt_km": 668.7105296597256,
        "timestamp": "2025-12-18T08:58:43.799569+00:00",
        "meta_object_name": "IRIDIUM 33 DEB",
        "meta_object_id": "1997-051AD",
        "meta_epoch": "2025-12-17T20:44:12.939360",
        "meta_mean_motion": 14.67430284,
        "meta_eccentricity": 0.00068026,
        "meta_inclination": 86.383,
        "meta_ra_of_asc_node": 24.9702,
        "meta_arg_of_pericenter": 338.9928,
        "meta_mean_anomaly": 200.2334,
        "meta_ephemeris_type": 0,
        "meta_classification_type": "U",
        "meta_norad_cat_id": 33860,
        "meta_element_set_no": 999,
        "meta_rev_at_epoch": 88797,
        "meta_bstar": 0.00087666322,
        "meta_mean_motion_dot": 4.982e-05,
        "meta_mean_motion_ddot": 0,
        "tle_line1": "1 33860U 97051AD  25351.86403865  .00004982  00000+0  87666-3 0  9996",
        "tle_line2": "2 33860  86.3830  24.9702 0006802 338.9928 200.2334 14.67430284887974"
      },
      "geometry": {
        "type": "Point",
        "coordinates": [
          24.235802734131244,
          -7.989177423214379
        ]
      }
    },
    {
      "type": "Feature",
      "properties": {
        "norad_id": 33862,
        "name": "IRIDIUM 33 DEB",
        "group": "iridium-33-debris",
        "lat": 70.16233312668652,
        "lon": 45.07084145706762,
        "alt_km": 620.7380743693839,
        "timestamp": "2025-12-18T08:58:43.799580+00:00",
        "meta_object_name": "IRIDIUM 33 DEB",
        "meta_object_id": "1997-051AF",
        "meta_epoch": "2025-12-17T15:13:23.215008",
        "meta_mean_motion": 14.69553333,
        "meta_eccentricity": 0.00529911,
        "meta_inclination": 86.409,
        "meta_ra_of_asc_node": 35.3724,
        "meta_arg_of_pericenter": 52.7991,
        "meta_mean_anomaly": 66.1029,
        "meta_ephemeris_type": 0,
        "meta_classification_type": "U",
        "meta_norad_cat_id": 33862,
        "meta_element_set_no": 999,
        "meta_rev_at_epoch": 88895,
        "meta_bstar": 0.0010243514,
        "meta_mean_motion_dot": 6.236e-05,
        "meta_mean_motion_ddot": 0,
        "tle_line1": "1 33862U 97051AF  25351.63429647  .00006236  00000+0  10244-2 0  9990",
        "tle_line2": "2 33862  86.4090  35.3724 0052991  52.7991  66.1029 14.69553333888958"
      },
      "geometry": {
        "type": "Point",
        "coordinates": [
          45.07084145706762,
          70.16233312668652
        ]
      }
    },
    {
      "type": "Feature",
      "properties": {
        "norad_id": 33866,
        "name": "IRIDIUM 33 DEB",
        "group": "iridium-33-debris",
        "lat": -40.3560411071423,
        "lon": 87.50015306255925,
        "alt_km": 896.4548535915437,
        "timestamp": "2025-12-18T08:58:43.799591+00:00",
        "meta_object_name": "IRIDIUM 33 DEB",
        "meta_object_id": "1997-051AK",
        "meta_epoch": "2025-12-17T18:44:06.185760",
        "meta_mean_motion": 14.25290921,
        "meta_eccentricity": 0.01148399,
        "meta_inclination": 86.3002,
        "meta_ra_of_asc_node": 90.9031,
        "meta_arg_of_pericenter": 145.4116,
        "meta_mean_anomaly": 10.8129,
        "meta_ephemeris_type": 0,
        "meta_classification_type": "U",
        "meta_norad_cat_id": 33866,
        "meta_element_set_no": 999,
        "meta_rev_at_epoch": 86882,
        "meta_bstar": 0.0004477839,
        "meta_mean_motion_dot": 1.149e-05,
        "meta_mean_motion_ddot": 0,
        "tle_line1": "1 33866U 97051AK  25351.78062715  .00001149  00000+0  44778-3 0  9997",
        "tle_line2": "2 33866  86.3002  90.9031 0114839 145.4116  10.8129 14.25290921868825"
      },
      "geometry": {
        "type": "Point",
        "coordinates": [
          87.50015306255925,
          -40.3560411071423
        ]
      }
    },
    {
      "type": "Feature",
      "properties": {
        "norad_id": 33867,
        "name": "IRIDIUM 33 DEB",
        "group": "iridium-33-debris",
        "lat": 68.97333336548158,
        "lon": 157.6344619722894,
        "alt_km": 318.295856159687,
        "timestamp": "2025-12-18T08:58:43.799602+00:00",
        "meta_object_name": "IRIDIUM 33 DEB",
        "meta_object_id": "1997-051AL",
        "meta_epoch": "2025-12-17T17:17:38.563008",
        "meta_mean_motion": 15.77439013,
        "meta_eccentricity": 0.00137248,
        "meta_inclination": 86.3647,
        "meta_ra_of_asc_node": 347.4994,
        "meta_arg_of_pericenter": 92.8453,
        "meta_mean_anomaly": 267.4392,
        "meta_ephemeris_type": 0,
        "meta_classification_type": "U",
        "meta_norad_cat_id": 33867,
        "meta_element_set_no": 999,
        "meta_rev_at_epoch": 89589,
        "meta_bstar": 0.0066840387,
        "meta_mean_motion_dot": 0.01246262,
        "meta_mean_motion_ddot": 0,
        "tle_line1": "1 33867U 97051AL  25351.72058522  .01246262  00000+0  66840-2 0  9994",
        "tle_line2": "2 33867  86.3647 347.4994 0013724  92.8453 267.4392 15.77439013895893"
      },
      "geometry": {
        "type": "Point",
        "coordinates": [
          157.6344619722894,
          68.97333336548158
        ]
      }
    },
    {
      "type": "Feature",
      "properties": {
        "norad_id": 33870,
        "name": "IRIDIUM 33 DEB",
        "group": "iridium-33-debris",
        "lat": 64.72172505811511,
        "lon": -131.8696591733204,
        "alt_km": 721.813984292462,
        "timestamp": "2025-12-18T08:58:43.799613+00:00",
        "meta_object_name": "IRIDIUM 33 DEB",
        "meta_object_id": "1997-051AP",
        "meta_epoch": "2025-12-17T16:26:11.652576",
        "meta_mean_motion": 14.45877028,
        "meta_eccentricity": 0.00219923,
        "meta_inclination": 86.3747,
        "meta_ra_of_asc_node": 56.1412,
        "meta_arg_of_pericenter": 162.2109,
        "meta_mean_anomaly": 327.5308,
        "meta_ephemeris_type": 0,
        "meta_classification_type": "U",
        "meta_norad_cat_id": 33870,
        "meta_element_set_no": 999,
        "meta_rev_at_epoch": 88208,
        "meta_bstar": 0.00054897647,
        "meta_mean_motion_dot": 1.975e-05,
        "meta_mean_motion_ddot": 0,
        "tle_line1": "1 33870U 97051AP  25351.68485709  .00001975  00000+0  54898-3 0  9994",
        "tle_line2": "2 33870  86.3747  56.1412 0021992 162.2109 327.5308 14.45877028882081"
      },
      "geometry": {
        "type": "Point",
        "coordinates": [
          -131.8696591733204,
          64.72172505811511
        ]
      }
    },
    {
      "type": "Feature",
      "properties": {
        "norad_id": 33881,
        "name": "IRIDIUM 33 DEB",
        "group": "iridium-33-debris",
        "lat": -21.960143591236285,
        "lon": -74.24638628402276,
        "alt_km": 678.7254942500867,
        "timestamp": "2025-12-18T08:58:43.799624+00:00",
        "meta_object_name": "IRIDIUM 33 DEB",
        "meta_object_id": "1997-051BA",
        "meta_epoch": "2025-12-17T13:59:16.230336",
        "meta_mean_motion": 14.56660218,
        "meta_eccentricity": 0.00614907,
        "meta_inclination": 86.386,
        "meta_ra_of_asc_node": 104.6373,
        "meta_arg_of_pericenter": 159.0678,
        "meta_mean_anomaly": 215.4693,
        "meta_ephemeris_type": 0,
        "meta_classification_type": "U",
        "meta_norad_cat_id": 33881,
        "meta_element_set_no": 999,
        "meta_rev_at_epoch": 87571,
        "meta_bstar": 0.0015160031,
        "meta_mean_motion_dot": 6.964e-05,
        "meta_mean_motion_ddot": 0,
        "tle_line1": "1 33881U 97051BA  25351.58282674  .00006964  00000+0  15160-2 0  9992",
        "tle_line2": "2 33881  86.3860 104.6373 0061490 159.0678 215.4693 14.56660218875713"
      },
      "geometry": {
        "type": "Point",
        "coordinates": [
          -74.24638628402276,
          -21.960143591236285
        ]
      }
    },
    {
      "type": "Feature",
      "properties": {
        "norad_id": 33884,
        "name": "IRIDIUM 33 DEB",
        "group": "iridium-33-debris",
        "lat": -30.456259464030204,
        "lon": -170.5849572400041,
        "alt_km": 643.4324106776594,
        "timestamp": "2025-12-18T08:58:43.799637+00:00",
        "meta_object_name": "IRIDIUM 33 DEB",
        "meta_object_id": "1997-051BD",
        "meta_epoch": "2025-12-17T13:04:54.280416",
        "meta_mean_motion": 14.77523621,
        "meta_eccentricity": 0.00093111,
        "meta_inclination": 86.3696,
        "meta_ra_of_asc_node": 7.6497,
        "meta_arg_of_pericenter": 305.3412,
        "meta_mean_anomaly": 178.2939,
        "meta_ephemeris_type": 0,
        "meta_classification_type": "U",
        "meta_norad_cat_id": 33884,
        "meta_element_set_no": 999,
        "meta_rev_at_epoch": 88918,
        "meta_bstar": 0.0011919689,
        "meta_mean_motion_dot": 8.535e-05,
        "meta_mean_motion_ddot": 0,
        "tle_line1": "1 33884U 97051BD  25351.54507269  .00008535  00000+0  11920-2 0  9997",
        "tle_line2": "2 33884  86.3696   7.6497 0009311 305.3412 178.2939 14.77523621889182"
      },
      "geometry": {
        "type": "Point",
        "coordinates": [
          -170.5849572400041,
          -30.456259464030204
        ]
      }
    }
  ]
}